{
  "type": "FeatureCollection",
  "features": [
    {
      "type": "Feature",
      "properties": {
        "norad_id": 31763,
        "name": "FENGYUN 1C DEB",
        "group": "fengyun-1c-debris",
        "lat": 44.42181856687507,
        "lon": 99.35340400296171,
        "alt_km": 670.2786583818788,
        "timestamp": "2025-12-27T10:28:59.078506+00:00",
        "meta_object_name": "FENGYUN 1C DEB",
        "meta_object_id": "1999-025CFN",
        "meta_epoch": "2025-12-24T01:21:59.387040",
        "meta_mean_motion": 13.50350677,
        "meta_eccentricity": 0.0546364,
        "meta_inclination": 98.5205,
        "meta_ra_of_asc_node": 104.8899,
        "meta_arg_of_pericenter": 40.2812,
        "meta_mean_anomaly": 141.7775,
        "meta_ephemeris_type": 0,
        "meta_classification_type": "U",
        "meta_norad_cat_id": 31763,
        "meta_element_set_no": 999,
        "meta_rev_at_epoch": 91158,
        "meta_bstar": 0.00057862124,
        "meta_mean_motion_dot": 9.11e-06,
        "meta_mean_motion_ddot": 0,
        "tle_line1": "1 31763U 99025CFN 25358.05693735  .00000911  00000+0  57862-3 0  9997",
        "tle_line2": "2 31763  98.5205 104.8899 0546364  40.2812 141.7775 13.50350677911588"
      },
      "geometry": {
        "type": "Point",
        "coordinates": [
          99.35340400296171,
          44.42181856687507
        ]
      }
    },
    {
      "type": "Feature",
      "properties": {
        "norad_id": 31766,
        "name": "FENGYUN 1C DEB",
        "group": "fengyun-1c-debris",
        "lat": 52.89802258742714,
        "lon": -12.985632141174175,
        "alt_km": 921.8252927983922,
        "timestamp": "2025-12-27T10:28:59.078517+00:00",
        "meta_object_name": "FENGYUN 1C DEB",
        "meta_object_id": "1999-025CFR",
        "meta_epoch": "2025-12-22T05:29:01.188672",
        "meta_mean_motion": 14.05283405,
        "meta_eccentricity": 0.00734706,
        "meta_inclination": 98.8171,
        "meta_ra_of_asc_node": 353.7923,
        "meta_arg_of_pericenter": 264.1767,
        "meta_mean_anomaly": 95.1022,
        "meta_ephemeris_type": 0,
        "meta_classification_type": "U",
        "meta_norad_cat_id": 31766,
        "meta_element_set_no": 999,
        "meta_rev_at_epoch": 64219,
        "meta_bstar": 0.00016407086,
        "meta_mean_motion_dot": 2.28e-06,
        "meta_mean_motion_ddot": 0,
        "tle_line1": "1 31766U 99025CFR 25356.22848598  .00000228  00000+0  16407-3 0  9997",
        "tle_line2": "2 31766  98.8171 353.7923 0073470 264.1767  95.1022 14.05283405642198"
      },
      "geometry": {
        "type": "Point",
        "coordinates": [
          -12.985632141174175,
          52.89802258742714
        ]
      }
    },
    {
      "type": "Feature",
      "properties": {
        "norad_id": 31767,
        "name": "FENGYUN 1C DEB",
        "group": "fengyun-1c-debris",
        "lat": 8.944981720971466,
        "lon": 29.319518848989105,
        "alt_km": 850.1356625130829,
        "timestamp": "2025-12-27T10:28:59.078527+00:00",
        "meta_object_name": "FENGYUN 1C DEB",
        "meta_object_id": "1999-025CFS",
        "meta_epoch": "2025-12-24T13:06:04.201344",
        "meta_mean_motion": 14.04960762,
        "meta_eccentricity": 0.00413509,
        "meta_inclination": 98.8206,
        "meta_ra_of_asc_node": 27.9098,
        "meta_arg_of_pericenter": 37.4471,
        "meta_mean_anomaly": 118.1343,
        "meta_ephemeris_type": 0,
        "meta_classification_type": "U",
        "meta_norad_cat_id": 31767,
        "meta_element_set_no": 999,
        "meta_rev_at_epoch": 94991,
        "meta_bstar": 0.00032088657,
        "meta_mean_motion_dot": 4.77e-06,
        "meta_mean_motion_ddot": 0,
        "tle_line1": "1 31767U 99025CFS 25358.54588196  .00000477  00000+0  32089-3 0  9990",
        "tle_line2": "2 31767  98.8206  27.9098 0041350  37.4471 118.1343 14.04960762949915"
      },
      "geometry": {
        "type": "Point",
        "coordinates": [
          29.319518848989105,
          8.944981720971466
        ]
      }
    },
    {
      "type": "Feature",
      "properties": {
        "norad_id": 31768,
        "name": "FENGYUN 1C DEB",
        "group": "fengyun-1c-debris",
        "lat": -63.79876664564916,
        "lon": 94.93187993552674,
        "alt_km": 628.5023881065963,
        "timestamp": "2025-12-27T10:28:59.078537+00:00",
        "meta_object_name": "FENGYUN 1C DEB",
        "meta_object_id": "1999-025CFT",
        "meta_epoch": "2025-12-24T23:24:56.682720",
        "meta_mean_motion": 14.7653893,
        "meta_eccentricity": 0.00265868,
        "meta_inclination": 99.0407,
        "meta_ra_of_asc_node": 73.3007,
        "meta_arg_of_pericenter": 301.9277,
        "meta_mean_anomaly": 237.8153,
        "meta_ephemeris_type": 0,
        "meta_classification_type": "U",
        "meta_norad_cat_id": 31768,
        "meta_element_set_no": 999,
        "meta_rev_at_epoch": 97053,
        "meta_bstar": 0.0026794233,
        "meta_mean_motion_dot": 0.00018774,
        "meta_mean_motion_ddot": 0,
        "tle_line1": "1 31768U 99025CFT 25358.97565605  .00018774  00000+0  26794-2 0  9992",
        "tle_line2": "2 31768  99.0407  73.3007 0026586 301.9277 237.8153 14.76538930970531"
      },
      "geometry": {
        "type": "Point",
        "coordinates": [
          94.93187993552674,
          -63.79876664564916
        ]
      }
    },
    {
      "type": "Feature",
      "properties": {
        "norad_id": 31772,
        "name": "FENGYUN 1C DEB",
        "group": "fengyun-1c-debris",
        "lat": -45.1473868278583,
        "lon": 89.46360786120316,
        "alt_km": 948.9363139389061,
        "timestamp": "2025-12-27T10:28:59.078547+00:00",
        "meta_object_name": "FENGYUN 1C DEB",
        "meta_object_id": "1999-025CFX",
        "meta_epoch": "2025-12-21T17:20:55.932576",
        "meta_mean_motion": 14.11729705,
        "meta_eccentricity": 0.01371811,
        "meta_inclination": 98.4737,
        "meta_ra_of_asc_node": 272.682,
        "meta_arg_of_pericenter": 88.103,
        "meta_mean_anomaly": 273.5847,
        "meta_ephemeris_type": 0,
        "meta_classification_type": "U",
        "meta_norad_cat_id": 31772,
        "meta_element_set_no": 999,
        "meta_rev_at_epoch": 71010,
        "meta_bstar": 0.0008718097,
        "meta_mean_motion_dot": 1.696e-05,
        "meta_mean_motion_ddot": 0,
        "tle_line1": "1 31772U 99025CFX 25355.72286959  .00001696  00000+0  87181-3 0  9992",
        "tle_line2": "2 31772  98.4737 272.6820 0137181  88.1030 273.5847 14.11729705710100"
      },
      "geometry": {
        "type": "Point",
        "coordinates": [
          89.46360786120316,
          -45.1473868278583
        ]
      }
    },
    {
      "type": "Feature",
      "properties": {
        "norad_id": 31773,
        "name": "FENGYUN 1C DEB",
        "group": "fengyun-1c-debris",
        "lat": -59.6025734639939,
        "lon": 9.427441665765448,
        "alt_km": 685.2212479486479,
        "timestamp": "2025-12-27T10:28:59.078557+00:00",
        "meta_object_name": "FENGYUN 1C DEB",
        "meta_object_id": "1999-025CFY",
        "meta_epoch": "2025-12-23T05:41:28.848480",
        "meta_mean_motion": 14.730751,
        "meta_eccentricity": 0.00397514,
        "meta_inclination": 98.95,
        "meta_ra_of_asc_node": 349.2185,
        "meta_arg_of_pericenter": 145.6123,
        "meta_mean_anomaly": 214.7666,
        "meta_ephemeris_type": 0,
        "meta_classification_type": "U",
        "meta_norad_cat_id": 31773,
        "meta_element_set_no": 999,
        "meta_rev_at_epoch": 65329,
        "meta_bstar": 0.0018495953,
        "meta_mean_motion_dot": 0.00012007,
        "meta_mean_motion_ddot": 0,
        "tle_line1": "1 31773U 99025CFY 25357.23713945  .00012007  00000+0  18496-2 0  9991",
        "tle_line2": "2 31773  98.9500 349.2185 0039751 145.6123 214.7666 14.73075100653298"
      },
      "geometry": {
        "type": "Point",
        "coordinates": [
          9.427441665765448,
          -59.6025734639939
        ]
      }
    },
    {
      "type": "Feature",
      "properties": {
        "norad_id": 31776,
        "name": "FENGYUN 1C DEB",
        "group": "fengyun-1c-debris",
        "lat": 18.929702282591087,
        "lon": 58.3712207430507,
        "alt_km": 827.8428433434028,
        "timestamp": "2025-12-27T10:28:59.078567+00:00",
        "meta_object_name": "FENGYUN 1C DEB",
        "meta_object_id": "1999-025CGB",
        "meta_epoch": "2025-12-22T03:34:27.360192",
        "meta_mean_motion": 14.18599127,
        "meta_eccentricity": 0.00542431,
        "meta_inclination": 99.0724,
        "meta_ra_of_asc_node": 56.1061,
        "meta_arg_of_pericenter": 307.3827,
        "meta_mean_anomaly": 81.1299,
        "meta_ephemeris_type": 0,
        "meta_classification_type": "U",
        "meta_norad_cat_id": 31776,
        "meta_element_set_no": 999,
        "meta_rev_at_epoch": 95014,
        "meta_bstar": 0.0013053929,
        "meta_mean_motion_dot": 2.697e-05,
        "meta_mean_motion_ddot": 0,
        "tle_line1": "1 31776U 99025CGB 25356.14892778  .00002697  00000+0  13054-2 0  9994",
        "tle_line2": "2 31776  99.0724  56.1061 0054243 307.3827  81.1299 14.18599127950140"
      },
      "geometry": {
        "type": "Point",
        "coordinates": [
          58.3712207430507,
          18.929702282591087
        ]
      }
    }
  ]
}